ACS3                    
1 59588U 24077B   24262.14610282  .00029916  00000+0  34304-1 0  9996
2 59588  97.4235 308.7390 0043346 215.0342 144.7957 13.69023506 20110
